ONEWEB-0201             
1 48241U 21031AH  24090.90407059  .00000244  00000+0  62459-3 0  9993
2 48241  87.8895  90.5723 0001940  94.6136 265.5215 13.14503089142192
ONEWEB-0207             
1 48242U 21031AJ  24090.95956264 -.00000107  00000+0 -32202-3 0  9999
2 48242  87.8892  90.5280 0002212  90.7099 269.4284 13.14504485142118
ONEWEB-0208             
1 48243U 21031AK  24091.47417119 -.00002085  00000+0 -56601-2 0  9994
2 48243  87.8893  90.4404 0002067  87.8515 272.2852 13.14488818142197
ONEWEB-0200             
1 48244U 21031AL  24090.90486288  .00000238  00000+0  60674-3 0  9997
2 48244  87.8890  90.5526 0001801  97.2518 262.8817 13.14503438142040
ONEWEB-0217             
1 48245U 21031AM  24091.52965563  .00000290  00000+0  74861-3 0  9996
2 48245  87.8892  90.4121 0001703  99.7831 260.3491 13.14504222142086
ONEWEB-0211             
1 48767U 21045A   24091.44226577  .00000175  00000+0  43048-3 0  9991
2 48767  87.8995  59.9196 0001870  84.0044 276.1299 13.15549371139340
ONEWEB-0223             
1 48768U 21045B   24090.93203433 -.00000040  00000+0 -13896-3 0  9992
2 48768  87.8999  60.0259 0001187  72.8675 287.2585 13.15550412138139
ONEWEB-0230             
1 48769U 21045C   24090.90352629  .00000172  00000+0  42344-3 0  9996
2 48769  87.8996  60.1037 0001932  78.8285 281.3063 13.15548160138394
ONEWEB-0237             
1 48770U 21045D   24091.42483146  .00000174  00000+0  42724-3 0  9999
2 48770  87.9003  59.9262 0001491  76.7226 283.4070 13.15548754139317
ONEWEB-0235             
1 48771U 21045E   24091.47553399 -.00000039  00000+0 -13735-3 0  9995
2 48771  87.8997  59.9324 0001287  64.5277 295.5986 13.15549119139307
ONEWEB-0242             
1 48772U 21045F   24091.46918641 -.00000081  00000+0 -24982-3 0  9993
2 48772  87.8998  59.9222 0001799  76.7840 283.3490 13.15548899139359
ONEWEB-0241             
1 48773U 21045G   24091.45651463  .00000016  00000+0  82413-5 0  9990
2 48773  87.9005  59.9648 0001480  91.2128 268.9172 13.15548328139263
ONEWEB-0243             
1 48774U 21045H   24091.18397622 -.00000035  00000+0 -12743-3 0  9995
2 48774  87.9002  59.9777 0001356  78.2666 281.8617 13.15549555139258
ONEWEB-0222             
1 48775U 21045J   24091.47157991 -.00000053  00000+0 -17486-3 0  9990
2 48775  87.8994  59.9321 0001587  84.3805 275.7506 13.15549390139326
ONEWEB-0244             
1 48776U 21045K   24091.42166216  .00000136  00000+0  32735-3 0  9990
2 48776  87.8989  59.9261 0001871  75.6154 284.5184 13.15549489139880
ONEWEB-0247             
1 48777U 21045L   24091.41848973  .00000064  00000+0  13692-3 0  9998
2 48777  87.8998  59.9616 0001123  50.1205 310.0024 13.15549181139337
ONEWEB-0245             
1 48778U 21045M   24091.41374329  .00000003  00000+0 -26172-4 0  9990
2 48778  87.8993  59.9573 0001680  90.3969 269.7354 13.15548692139305
ONEWEB-0229             
1 48779U 21045N   24091.40900127 -.00001906  00000+0 -50986-2 0  9993
2 48779  87.8995  59.9497 0001539  80.1678 279.9626 13.15536515139339
ONEWEB-0228             
1 48780U 21045P   24091.42404235  .00000070  00000+0  15301-3 0  9998
2 48780  87.8989  59.9248 0001820  79.8877 280.2458 13.15549078139254
ONEWEB-0232             
1 48781U 21045Q   24090.96055768  .00000028  00000+0  40015-4 0  9994
2 48781  87.8986  60.0425 0001781  79.3012 280.8319 13.15548713138384
ONEWEB-0231             
1 48782U 21045R   24091.47078668 -.00000041  00000+0 -14220-3 0  9991
2 48782  87.9005  59.9581 0001661  78.5979 281.5338 13.15548549139284
ONEWEB-0234             
1 48783U 21045S   24091.18635742  .00000048  00000+0  94146-4 0  9993
2 48783  87.8995  59.9802 0002791 110.1361 250.0070 13.15547058139379
ONEWEB-0238             
1 48784U 21045T   24091.44463299  .00000166  00000+0  40637-3 0  9995
2 48784  87.8995  59.9471 0002011  86.3214 273.8146 13.15549993139308
ONEWEB-0240             
1 48785U 21045U   24090.92174832  .00000049  00000+0  95112-4 0  9999
2 48785  87.8995  60.0189 0001453  89.2923 270.8374 13.15548917138131
ONEWEB-0246             
1 48786U 21045V   24091.14435733  .00000112  00000+0  26447-3 0  9990
2 48786  87.8997  59.9779 0001841  77.0292 283.1044 13.15549611139157
ONEWEB-0210             
1 48787U 21045W   24091.42322641 -.00002236  00000+0 -59750-2 0  9998
2 48787  87.8993  59.9286 0001442  57.9851 302.1419 13.15559962139240
ONEWEB-0214             
1 48788U 21045X   24091.43275772  .00000201  00000+0  49857-3 0  9998
2 48788  87.8993  59.9154 0001843  61.8709 298.2607 13.15548091139207
ONEWEB-0221             
1 48789U 21045Y   24091.21090961  .00000154  00000+0  37539-3 0  9991
2 48789  87.9000  59.9754 0001596  82.5721 277.5591 13.15549546139289
ONEWEB-0213             
1 48790U 21045Z   24091.42798583  .00000197  00000+0  48986-3 0  9996
2 48790  87.8993  59.9472 0001475  79.2306 280.8990 13.15550219139364
ONEWEB-0212             
1 48791U 21045AA  24091.48108430 -.00000033  00000+0 -12224-3 0  9996
2 48791  87.8996  59.9177 0001954  85.2815 274.8538 13.15549078139377
ONEWEB-0227             
1 48792U 21045AB  24090.94788116 -.00000045  00000+0 -15268-3 0  9996
2 48792  87.8994  60.0404 0001775  83.9052 276.2280 13.15546932138118
ONEWEB-0226             
1 48793U 21045AC  24091.16972611 -.00000181  00000+0 -51516-3 0  9994
2 48793  87.8996  60.0033 0001524  68.0213 292.1079 13.15548226139239
ONEWEB-0224             
1 48794U 21045AD  24090.90510706  .00000196  00000+0  48604-3 0  9997
2 48794  87.8999  60.0740 0001312 104.2542 255.8734 13.15548817139129
ONEWEB-0233             
1 48795U 21045AE  24091.43354678  .00000510  00000+0  13204-2 0  9998
2 48795  87.9000  59.9807 0001871  76.6876 283.4463 13.15551345139202
ONEWEB-0190             
1 48796U 21045AF  24091.42956959  .00000259  00000+0  65296-3 0  9997
2 48796  87.8997  59.9442 0000847  62.2763 297.8453 13.15550041139288
ONEWEB-0236             
1 48797U 21045AG  24091.44701914  .00000178  00000+0  43915-3 0  9993
2 48797  87.9005  59.9313 0001789  84.6319 275.5015 13.15548633139177
ONEWEB-0248             
1 48798U 21045AH  24091.45968283  .00000048  00000+0  93645-4 0  9991
2 48798  87.8996  59.9262 0001181 100.2132 259.9131 13.15549908139332
ONEWEB-0225             
1 48799U 21045AJ  24091.40581538 -.00000042  00000+0 -14647-3 0  9991
2 48799  87.8999  59.9457 0001400  81.7262 278.4027 13.15549057139350
ONEWEB-0215             
1 48800U 21045AK  24091.14753914  .00000111  00000+0  25985-3 0  9996
2 48800  87.8995  59.9753 0000913  86.6120 273.5115 13.15547553139176
ONEWEB-0216             
1 48801U 21045AL  24090.92887857 -.00000011  00000+0 -63873-4 0  9996
2 48801  87.8994  60.0590 0001910  73.6922 286.4418 13.15548505138033
ONEWEB-0239             
1 48802U 21045AM  24091.46600359 -.00000031  00000+0 -11756-3 0  9991
2 48802  87.9006  59.9205 0001047 105.4787 254.6459 13.15545739139289
ONEWEB-0249             
1 48967U 21060A   24091.35640808  .00000158  00000+0  38021-3 0  9993
2 48967  87.9138  29.5491 0001901  79.3982 280.7362 13.16597056134606
ONEWEB-0250             
1 48968U 21060B   24090.90518847  .00000150  00000+0  35995-3 0  9990
2 48968  87.9139  29.6224 0001593  84.7555 275.3758 13.16596892133230
ONEWEB-0252             
1 48970U 21060D   24091.54008190  .00000000  00000+0 -33920-4 0  9991
2 48970  87.9141  29.5057 0001899  73.8873 286.2467 13.16594653134670
ONEWEB-0253             
1 48971U 21060E   24091.52897147  .00000013  00000+0 -50907-6 0  9998
2 48971  87.9137  29.5216 0001573  74.0997 286.0307 13.16597922134596
ONEWEB-0254             
1 48972U 21060F   24090.85451817  .00000055  00000+0  11015-3 0  9993
2 48972  87.9141  29.6318 0001540  73.8230 286.3070 13.16596525133224
ONEWEB-0255             
1 48973U 21060G   24091.34850585  .00000192  00000+0  46833-3 0  9992
2 48973  87.9138  29.5690 0001834  80.5972 279.5366 13.16595485134651
ONEWEB-0256             
1 48974U 21060H   24091.22261927  .00000086  00000+0  19025-3 0  9991
2 48974  87.9144  29.5945 0002047  74.9611 285.1746 13.16592844134602
ONEWEB-0257             
1 48975U 21060J   24091.55906488 -.00000002  00000+0 -39460-4 0  9992
2 48975  87.9138  29.5008 0001854  73.9330 286.2005 13.16596356134600
ONEWEB-0258             
1 48976U 21060K   24090.87668754  .00000076  00000+0  16613-3 0  9991
2 48976  87.9135  29.6650 0001834  80.8259 279.3079 13.16596199133234
ONEWEB-0259             
1 48977U 21060L   24090.87034873  .00000046  00000+0  87685-4 0  9996
2 48977  87.9139  29.6512 0001656  87.3814 272.7506 13.16596699133267
ONEWEB-0260             
1 48978U 21060M   24091.54563107  .00000001  00000+0 -31343-4 0  9991
2 48978  87.9142  29.5452 0002187  62.2966 297.8386 13.16591755134616
ONEWEB-0261             
1 48979U 21060N   24091.21074061  .00000059  00000+0  12161-3 0  9990
2 48979  87.9143  29.6033 0001353  65.6593 294.4679 13.16597943134647
ONEWEB-0262             
1 48980U 21060P   24090.58377717  .00000124  00000+0  29055-3 0  9998
2 48980  87.9137  29.6943 0001377  88.3554 271.7735 13.16592828134522
ONEWEB-0263             
1 48981U 21060Q   24090.76744133  .00000017  00000+0  10831-4 0  9993
2 48981  87.9142  29.6717 0001356  74.6981 285.4299 13.16596378133213
ONEWEB-0264             
1 48982U 21060R   24090.88063971  .00000071  00000+0  15142-3 0  9990
2 48982  87.9140  29.6615 0001801  76.9019 283.2313 13.16596708133233
ONEWEB-0266             
1 48984U 21060T   24090.82602715 -.00002736  00000+0 -71936-2 0  9995
2 48984  87.9066  29.6539 0001281  91.1192 269.0086 13.16592052133215
ONEWEB-0267             
1 48985U 21060U   24091.21709100  .00000097  00000+0  21954-3 0  9998
2 48985  87.9138  29.5755 0001601  67.2556 292.8744 13.16596272134561
ONEWEB-0268             
1 48986U 21060V   24091.33741225 -.00005566  00000+0 -14597-1 0  9997
2 48986  87.9137  29.5576 0001735  70.2574 289.8744 13.16622448134846
